[{"OBJECT_NAME":"STARLINK-36261","OBJECT_ID":"2025-299D","EPOCH":"2026-03-09T22:00:01.999584","MEAN_MOTION":15.32372839,"ECCENTRICITY":0.00013283,"INCLINATION":43.0007,"RA_OF_ASC_NODE":167.8162,"ARG_OF_PERICENTER":279.5019,"MEAN_ANOMALY":305.2641,"EPHEMERIS_TYPE":0,"CLASSIFICATION_TYPE":"U","NORAD_CAT_ID":67105,"ELEMENT_SET_NO":999,"REV_AT_EPOCH":590,"BSTAR":-0.069612872,"MEAN_MOTION_DOT":-0.02009732,"MEAN_MOTION_DDOT":0},{"OBJECT_NAME":"IRIDIUM 45","OBJECT_ID":"1997-082A","EPOCH":"2026-03-09T19:43:04.689120","MEAN_MOTION":15.36676082,"ECCENTRICITY":0.00899413,"INCLINATION":86.3479,"RA_OF_ASC_NODE":277.5722,"ARG_OF_PERICENTER":47.6509,"MEAN_ANOMALY":313.2314,"EPHEMERIS_TYPE":0,"CLASSIFICATION_TYPE":"U","NORAD_CAT_ID":25104,"ELEMENT_SET_NO":999,"REV_AT_EPOCH":49262,"BSTAR":0.00064625537,"MEAN_MOTION_DOT":0.00026618,"MEAN_MOTION_DDOT":0}]
